$$SOE
2460154.500000000, A.D. 2023-Jul-29 00:00:00.0000, 3.551057441473812E+08, 3.366030444716501E+08, 1.249952398662940E+08,
2460161.500000000, A.D. 2023-Aug-05 00:00:00.0000, 3.485165685779918E+08, 3.429737160213739E+08, 1.221349851074579E+08,
2460168.500000000, A.D. 2023-Aug-12 00:00:00.0000, 3.417955721471826E+08, 3.492143760263692E+08, 1.192282213072154E+08,
2460175.500000000, A.D. 2023-Aug-19 00:00:00.0000, 3.349445153771542E+08, 3.553218534924606E+08, 1.162757829017231E+08,
2460182.500000000, A.D. 2023-Aug-26 00:00:00.0000, 3.279652262324106E+08, 3.612929852837881E+08, 1.132785306654749E+08,
2460189.500000000, A.D. 2023-Sep-02 00:00:00.0000, 3.208596011308666E+08, 3.671246175766439E+08, 1.102373520442713E+08,
2460196.500000000, A.D. 2023-Sep-09 00:00:00.0000, 3.136296059628239E+08, 3.728136072693292E+08, 1.071531614707573E+08,
2460203.500000000, A.D. 2023-Sep-16 00:00:00.0000, 3.062772772841423E+08, 3.783568232922335E+08, 1.040269006417190E+08,
2460210.500000000, A.D. 2023-Sep-23 00:00:00.0000, 2.988047240982777E+08, 3.837511481071724E+08, 1.008595387418007E+08,
2460217.500000000, A.D. 2023-Sep-30 00:00:00.0000, 2.912141298860523E+08, 3.889934805879531E+08, 9.765207274110559E+07,
2460224.500000000, A.D. 2023-Oct-07 00:00:00.0000, 2.835077525260770E+08, 3.940807397392241E+08, 9.440552793648328E+07,
2460231.500000000, A.D. 2023-Oct-14 00:00:00.0000, 2.756879231415378E+08, 3.990098659420634E+08, 9.112095836926742E+07,
2460238.500000000, A.D. 2023-Oct-21 00:00:00.0000, 2.677570470997292E+08, 4.037778213311125E+08, 8.779944695353554E+07,
2460245.500000000, A.D. 2023-Oct-28 00:00:00.0000, 2.597176057364559E+08, 4.083815915634454E+08, 8.444210562860596E+07,
2460252.500000000, A.D. 2023-Nov-04 00:00:00.0000, 2.515721575501928E+08, 4.128181882095134E+08, 8.105007558610407E+07,
2460259.500000000, A.D. 2023-Nov-11 00:00:00.0000, 2.433233390391217E+08, 4.170846511682485E+08, 7.762452750555140E+07,
2460266.500000000, A.D. 2023-Nov-18 00:00:00.0000, 2.349738653969975E+08, 4.211780510440421E+08, 7.416666177244031E+07,
2460273.500000000, A.D. 2023-Nov-25 00:00:00.0000, 2.265265311374054E+08, 4.250954915095175E+08, 7.067770867297876E+07,
2460280.500000000, A.D. 2023-Dec-02 00:00:00.0000, 2.179842106709265E+08, 4.288341116434607E+08, 6.715892856058207E+07,
2460287.500000000, A.D. 2023-Dec-09 00:00:00.0000, 2.093498589086086E+08, 4.323910881851234E+08, 6.361161198042965E+07,
2460294.500000000, A.D. 2023-Dec-16 00:00:00.0000, 2.006265121742477E+08, 4.357636377177532E+08, 6.003707972494045E+07,
2460301.500000000, A.D. 2023-Dec-23 00:00:00.0000, 1.918172897690350E+08, 4.389490194695482E+08, 5.643668284261638E+07,
2460308.500000000, A.D. 2023-Dec-30 00:00:00.0000, 1.829253948439019E+08, 4.419445397810286E+08, 5.281180280684328E+07,
2460315.500000000, A.D. 2024-Jan-06 00:00:00.0000, 1.739541128008552E+08, 4.447475558761539E+08, 4.916385181192082E+07,
2460322.500000000, A.D. 2024-Jan-13 00:00:00.0000, 1.649068103893322E+08, 4.473554771311417E+08, 4.549427275593853E+07,
2460329.500000000, A.D. 2024-Jan-20 00:00:00.0000, 1.557869367172658E+08, 4.497657669269409E+08, 4.180453904845479E+07,
2460336.500000000, A.D. 2024-Jan-27 00:00:00.0000, 1.465980241435618E+08, 4.519759457357208E+08, 3.809615447973418E+07,
2460343.500000000, A.D. 2024-Feb-03 00:00:00.0000, 1.373436886176331E+08, 4.539835944904716E+08, 3.437065311071819E+07,
2460350.500000000, A.D. 2024-Feb-10 00:00:00.0000, 1.280276297372760E+08, 4.557863579445887E+08, 3.062959913202313E+07,
2460357.500000000, A.D. 2024-Feb-17 00:00:00.0000, 1.186536306575439E+08, 4.573819480271223E+08, 2.687458667742878E+07,
2460364.500000000, A.D. 2024-Feb-24 00:00:00.0000, 1.092255578804213E+08, 4.587681472058245E+08, 2.310723958730900E+07,
2460371.500000000, A.D. 2024-Mar-02 00:00:00.0000, 9.974736094838654E+07, 4.599428118223900E+08, 1.932921111422795E+07,
2460378.500000000, A.D. 2024-Mar-09 00:00:00.0000, 9.022307217426194E+07, 4.609038753335871E+08, 1.554218355044639E+07,
2460385.500000000, A.D. 2024-Mar-16 00:00:00.0000, 8.065680679614247E+07, 4.616493516520512E+08, 1.174786775487652E+07,
2460392.500000000, A.D. 2024-Mar-23 00:00:00.0000, 7.105276344785212E+07, 4.621773396924959E+08, 7.948002677240789E+06,
2460399.500000000, A.D. 2024-Mar-30 00:00:00.0000, 6.141522269874093E+07, 4.624860290912730E+08, 4.144355080285490E+06,
2460406.500000000, A.D. 2024-Apr-06 00:00:00.0000, 5.174854391179216E+07, 4.625737037236627E+08, 3.387191591725945E+05,
2460413.500000000, A.D. 2024-Apr-13 00:00:00.0000, 4.205716396312736E+07, 4.624387438508255E+08, -3.467084201196641E+06,
2460420.500000000, A.D. 2024-Apr-20 00:00:00.0000, 3.234559686569247E+07, 4.620796295690550E+08, -7.271208227116466E+06,
2460427.500000000, A.D. 2024-Apr-27 00:00:00.0000, 2.261843277497263E+07, 4.614949449925252E+08, -1.107178102419513E+07,
2460434.500000000, A.D. 2024-May-04 00:00:00.0000, 1.288033645857801E+07, 4.606833824582284E+08, -1.486690638009712E+07,
2460441.500000000, A.D. 2024-May-11 00:00:00.0000, 3.136045462132891E+06, 4.596437466436976E+08, -1.865466463386154E+07,
2460448.500000000, A.D. 2024-May-18 00:00:00.0000, -6.609631952038545E+06, 4.583749586113535E+08, -2.243311361921981E+07,
2460455.500000000, A.D. 2024-May-25 00:00:00.0000, -1.635181907374017E+07, 4.568760597641724E+08, -2.620028968633932E+07,
2460462.500000000, A.D. 2024-Jun-01 00:00:00.0000, -2.608557316583909E+07, 4.551462156464640E+08, -2.995420881363252E+07,
2460469.500000000, A.D. 2024-Jun-08 00:00:00.0000, -3.580588779472806E+07, 4.531847195571598E+08, -3.369286783538869E+07,
2460476.500000000, A.D. 2024-Jun-15 00:00:00.0000, -4.550769467401853E+07, 4.509909965101843E+08, -3.741424577839045E+07,
2460483.500000000, A.D. 2024-Jun-22 00:00:00.0000, -5.518586602899791E+07, 4.485646087058521E+08, -4.111630512013832E+07,
2460490.500000000, A.D. 2024-Jun-29 00:00:00.0000, -6.483521960453330E+07, 4.459052606782064E+08, -4.479699292294705E+07,
2460497.500000000, A.D. 2024-Jul-06 00:00:00.0000, -7.445052367512771E+07, 4.430128016301355E+08, -4.845424228721309E+07,
2460504.500000000, A.D. 2024-Jul-13 00:00:00.0000, -8.402650011369099E+07, 4.398872277686705E+08, -5.208597407133856E+07,
2460511.500000000, A.D. 2024-Jul-20 00:00:00.0000, -9.355782750673571E+07, 4.365286857798573E+08, -5.569009860270460E+07,
2460518.500000000, A.D. 2024-Jul-27 00:00:00.0000, -1.030391449717951E+08, 4.329374764719926E+08, -5.926451739796051E+07,
2460525.500000000, A.D. 2024-Aug-03 00:00:00.0000, -1.124650564031074E+08, 4.291140581994123E+08, -6.280712494801968E+07,
2460532.500000000, A.D. 2024-Aug-10 00:00:00.0000, -1.218301349777993E+08, 4.250590500487843E+08, -6.631581058272412E+07,
2460539.500000000, A.D. 2024-Aug-17 00:00:00.0000, -1.311289278724775E+08, 4.207732347952554E+08, -6.978846041665043E+07,
2460546.500000000, A.D. 2024-Aug-24 00:00:00.0000, -1.403559611590017E+08, 4.162575615913319E+08, -7.322295937884812E+07,
2460553.500000000, A.D. 2024-Aug-31 00:00:00.0000, -1.495057447597631E+08, 4.115131483119019E+08, -7.661719334008658E+07,
2460560.500000000, A.D. 2024-Sep-07 00:00:00.0000, -1.585727770922569E+08, 4.065412836666242E+08, -7.996905135833453E+07,
2460567.500000000, A.D. 2024-Sep-14 00:00:00.0000, -1.675515493125318E+08, 4.013434300609590E+08, -8.327642796625087E+07,
2460574.500000000, A.D. 2024-Sep-21 00:00:00.0000, -1.764365511798068E+08, 3.959212276051740E+08, -8.653722527839072E+07,
2460581.500000000, A.D. 2024-Sep-28 00:00:00.0000, -1.852222790198689E+08, 3.902764960290443E+08, -8.974935513347332E+07,
2460588.500000000, A.D. 2024-Oct-05 00:00:00.0000, -1.939032421081953E+08, 3.844112344866251E+08, -9.291074160271099E+07,
2460595.500000000, A.D. 2024-Oct-12 00:00:00.0000, -2.024739678257986E+08, 3.783276222177277E+08, -9.601932358343160E+07,
2460602.500000000, A.D. 2024-Oct-19 00:00:00.0000, -2.109290073277082E+08, 3.720280197838374E+08, -9.907305733553541E+07,
2460609.500000000, A.D. 2024-Oct-26 00:00:00.0000, -2.192629417433267E+08, 3.655149700642321E+08, -1.020699190178898E+08,
2460616.500000000, A.D. 2024-Nov-02 00:00:00.0000, -2.274703886377695E+08, 3.587911988512480E+08, -1.050079072543624E+08,
2460623.500000000, A.D. 2024-Nov-09 00:00:00.0000, -2.355460086232797E+08, 3.518596150538018E+08, -1.078850457304054E+08,
2460630.500000000, A.D. 2024-Nov-16 00:00:00.0000, -2.434845120795113E+08, 3.447233104988595E+08, -1.106993858159897E+08,
2460637.500000000, A.D. 2024-Nov-23 00:00:00.0000, -2.512806659194419E+08, 3.373855592713293E+08, -1.134490092163745E+08,
2460644.500000000, A.D. 2024-Nov-30 00:00:00.0000, -2.589293001754071E+08, 3.298498165410197E+08, -1.161320306660225E+08,
2460651.500000000, A.D. 2024-Dec-07 00:00:00.0000, -2.664253139679522E+08, 3.221197172894995E+08, -1.187466006621532E+08,
2460658.500000000, A.D. 2024-Dec-14 00:00:00.0000, -2.737636815282401E+08, 3.141990761545156E+08, -1.212909080673026E+08,
2460665.500000000, A.D. 2024-Dec-21 00:00:00.0000, -2.809394605739695E+08, 3.060918871475198E+08, -1.237631824627822E+08,
2460672.500000000, A.D. 2024-Dec-28 00:00:00.0000, -2.879478010444734E+08, 2.978023202739203E+08, -1.261616966680911E+08,
2460679.500000000, A.D. 2025-Jan-04 00:00:00.0000, -2.947839515762358E+08, 2.893347174276332E+08, -1.284847694603257E+08,
2460686.500000000, A.D. 2025-Jan-11 00:00:00.0000, -3.014432655212593E+08, 2.806935892185013E+08, -1.307307681830916E+08,
2460693.500000000, A.D. 2025-Jan-18 00:00:00.0000, -3.079212074046444E+08, 2.718836118161358E+08, -1.328981112287316E+08,
2460700.500000000, A.D. 2025-Jan-25 00:00:00.0000, -3.142133595556448E+08, 2.629096233386802E+08, -1.349852704466684E+08,
2460707.500000000, A.D. 2025-Feb-01 00:00:00.0000, -3.203154287004793E+08, 2.537766197603956E+08, -1.369907734890496E+08,
2460714.500000000, A.D. 2025-Feb-08 00:00:00.0000, -3.262232524364442E+08, 2.444897503634488E+08, -1.389132060888795E+08,
2460721.500000000, A.D. 2025-Feb-15 00:00:00.0000, -3.319328055364780E+08, 2.350543127213492E+08, -1.407512142663591E+08,
$$EOE